{
  "type": "FeatureCollection",
  "features": [
    {
      "type": "Feature",
      "properties": {
        "norad_id": 41589,
        "name": "EUTELSAT 117 WEST B (WAAS/PRN 131)",
        "group": "gnss",
        "lat": 0.009720936807879737,
        "lon": -65.28714448836405,
        "alt_km": 35784.92259651745,
        "timestamp": "2025-12-17T21:39:45.933380+00:00",
        "meta_object_name": "EUTELSAT 117 WEST B (WAAS/PRN 131)",
        "meta_object_id": "2016-038B",
        "meta_epoch": "2025-12-17T11:09:38.705184",
        "meta_mean_motion": 1.00272667,
        "meta_eccentricity": 2.539e-05,
        "meta_inclination": 0.0126,
        "meta_ra_of_asc_node": 156.3845,
        "meta_arg_of_pericenter": 104.8947,
        "meta_mean_anomaly": 235.4811,
        "meta_ephemeris_type": 0,
        "meta_classification_type": "U",
        "meta_norad_cat_id": 41589,
        "meta_element_set_no": 999,
        "meta_rev_at_epoch": 3484,
        "meta_bstar": 0,
        "meta_mean_motion_dot": 1.3e-07,
        "meta_mean_motion_ddot": 0,
        "tle_line1": "1 41589U 16038B   25351.46503131  .00000013  00000+0  00000+0 0  9996",
        "tle_line2": "2 41589   0.0126 156.3845 0000253 104.8947 235.4811  1.00272667 34847"
      },
      "geometry": {
        "type": "Point",
        "coordinates": [
          -65.28714448836405,
          0.009720936807879737
        ]
      }
    },
    {
      "type": "Feature",
      "properties": {
        "norad_id": 41859,
        "name": "GSAT0207 (GALILEO 15)",
        "group": "gnss",
        "lat": -51.74032124274843,
        "lon": -12.87929606124157,
        "alt_km": 23225.49077312023,
        "timestamp": "2025-12-17T21:39:45.933391+00:00",
        "meta_object_name": "GSAT0207 (GALILEO 15)",
        "meta_object_id": "2016-069A",
        "meta_epoch": "2025-12-13T09:14:27.730752",
        "meta_mean_motion": 1.70474447,
        "meta_eccentricity": 0.00022423,
        "meta_inclination": 55.3826,
        "meta_ra_of_asc_node": 106.2323,
        "meta_arg_of_pericenter": 321.9482,
        "meta_mean_anomaly": 38.0041,
        "meta_ephemeris_type": 0,
        "meta_classification_type": "U",
        "meta_norad_cat_id": 41859,
        "meta_element_set_no": 999,
        "meta_rev_at_epoch": 5623,
        "meta_bstar": 0,
        "meta_mean_motion_dot": 0,
        "meta_mean_motion_ddot": 0,
        "tle_line1": "1 41859U 16069A   25347.38504318  .00000000  00000+0  00000+0 0  9990",
        "tle_line2": "2 41859  55.3826 106.2323 0002242 321.9482  38.0041  1.70474447 56234"
      },
      "geometry": {
        "type": "Point",
        "coordinates": [
          -12.87929606124157,
          -51.74032124274843
        ]
      }
    },
    {
      "type": "Feature",
      "properties": {
        "norad_id": 41860,
        "name": "GSAT0212 (GALILEO 16)",
        "group": "gnss",
        "lat": -14.440024976786654,
        "lon": 95.8573810745612,
        "alt_km": 23219.51012585031,
        "timestamp": "2025-12-17T21:39:45.933401+00:00",
        "meta_object_name": "GSAT0212 (GALILEO 16)",
        "meta_object_id": "2016-069B",
        "meta_epoch": "2025-12-17T08:16:27.265728",
        "meta_mean_motion": 1.70474701,
        "meta_eccentricity": 0.00020752,
        "meta_inclination": 55.3825,
        "meta_ra_of_asc_node": 106.1181,
        "meta_arg_of_pericenter": 22.8873,
        "meta_mean_anomaly": 337.0809,
        "meta_ephemeris_type": 0,
        "meta_classification_type": "U",
        "meta_norad_cat_id": 41860,
        "meta_element_set_no": 999,
        "meta_rev_at_epoch": 5655,
        "meta_bstar": 0,
        "meta_mean_motion_dot": -9e-08,
        "meta_mean_motion_ddot": 0,
        "tle_line1": "1 41860U 16069B   25351.34476002 -.00000009  00000+0  00000+0 0  9991",
        "tle_line2": "2 41860  55.3825 106.1181 0002075  22.8873 337.0809  1.70474701 56553"
      },
      "geometry": {
        "type": "Point",
        "coordinates": [
          95.8573810745612,
          -14.440024976786654
        ]
      }
    },
    {
      "type": "Feature",
      "properties": {
        "norad_id": 41861,
        "name": "GSAT0213 (GALILEO 17)",
        "group": "gnss",
        "lat": 47.286368937799296,
        "lon": -122.2569036820252,
        "alt_km": 23223.728198618082,
        "timestamp": "2025-12-17T21:39:45.933413+00:00",
        "meta_object_name": "GSAT0213 (GALILEO 17)",
        "meta_object_id": "2016-069C",
        "meta_epoch": "2025-12-16T12:56:22.787232",
        "meta_mean_motion": 1.70474953,
        "meta_eccentricity": 0.00025393,
        "meta_inclination": 55.3843,
        "meta_ra_of_asc_node": 106.1481,
        "meta_arg_of_pericenter": 282.5474,
        "meta_mean_anomaly": 77.384,
        "meta_ephemeris_type": 0,
        "meta_classification_type": "U",
        "meta_norad_cat_id": 41861,
        "meta_element_set_no": 999,
        "meta_rev_at_epoch": 5640,
        "meta_bstar": 0,
        "meta_mean_motion_dot": -9e-08,
        "meta_mean_motion_ddot": 0,
        "tle_line1": "1 41861U 16069C   25350.53915263 -.00000009  00000+0  00000+0 0  9999",
        "tle_line2": "2 41861  55.3843 106.1481 0002539 282.5474  77.3840  1.70474953 56406"
      },
      "geometry": {
        "type": "Point",
        "coordinates": [
          -122.2569036820252,
          47.286368937799296
        ]
      }
    },
    {
      "type": "Feature",
      "properties": {
        "norad_id": 41862,
        "name": "GSAT0214 (GALILEO 18)",
        "group": "gnss",
        "lat": 22.092337792035828,
        "lon": 122.3548944884126,
        "alt_km": 23219.929782603,
        "timestamp": "2025-12-17T21:39:45.933422+00:00",
        "meta_object_name": "GSAT0214 (GALILEO 18)",
        "meta_object_id": "2016-069D",
        "meta_epoch": "2025-12-14T22:12:36.299232",
        "meta_mean_motion": 1.70474813,
        "meta_eccentricity": 0.00014239,
        "meta_inclination": 55.3815,
        "meta_ra_of_asc_node": 106.1855,
        "meta_arg_of_pericenter": 290.4821,
        "meta_mean_anomaly": 69.4663,
        "meta_ephemeris_type": 0,
        "meta_classification_type": "U",
        "meta_norad_cat_id": 41862,
        "meta_element_set_no": 999,
        "meta_rev_at_epoch": 5650,
        "meta_bstar": 0,
        "meta_mean_motion_dot": -6e-08,
        "meta_mean_motion_ddot": 0,
        "tle_line1": "1 41862U 16069D   25348.92542013 -.00000006  00000+0  00000+0 0  9996",
        "tle_line2": "2 41862  55.3815 106.1855 0001423 290.4821  69.4663  1.70474813 56507"
      },
      "geometry": {
        "type": "Point",
        "coordinates": [
          122.3548944884126,
          22.092337792035828
        ]
      }
    },
    {
      "type": "Feature",
      "properties": {
        "norad_id": 42709,
        "name": "SES-15 (WAAS/PRN 133)",
        "group": "gnss",
        "lat": -0.03959122442898224,
        "lon": -77.47422453534597,
        "alt_km": 35786.52034341915,
        "timestamp": "2025-12-17T21:39:45.933432+00:00",
        "meta_object_name": "SES-15 (WAAS/PRN 133)",
        "meta_object_id": "2017-026A",
        "meta_epoch": "2025-12-17T12:42:41.075712",
        "meta_mean_motion": 1.00268576,
        "meta_eccentricity": 1.686e-05,
        "meta_inclination": 0.0187,
        "meta_ra_of_asc_node": 344.2644,
        "meta_arg_of_pericenter": 349.9691,
        "meta_mean_anomaly": 173.6722,
        "meta_ephemeris_type": 0,
        "meta_classification_type": "U",
        "meta_norad_cat_id": 42709,
        "meta_element_set_no": 999,
        "meta_rev_at_epoch": 561,
        "meta_bstar": 0,
        "meta_mean_motion_dot": 8.5e-07,
        "meta_mean_motion_ddot": 0,
        "tle_line1": "1 42709U 17026A   25351.52964208  .00000085  00000+0  00000+0 0  9991",
        "tle_line2": "2 42709   0.0187 344.2644 0000168 349.9691 173.6722  1.00268576  5618"
      },
      "geometry": {
        "type": "Point",
        "coordinates": [
          -77.47422453534597,
          -0.03959122442898224
        ]
      }
    },
    {
      "type": "Feature",
      "properties": {
        "norad_id": 42738,
        "name": "QZS-2 (QZSS/PRN 194)",
        "group": "gnss",
        "lat": -27.603574598630473,
        "lon": -153.14212115782902,
        "alt_km": 33392.25714453061,
        "timestamp": "2025-12-17T21:39:45.933444+00:00",
        "meta_object_name": "QZS-2 (QZSS/PRN 194)",
        "meta_object_id": "2017-028A",
        "meta_epoch": "2025-12-17T13:57:26.416800",
        "meta_mean_motion": 1.00281777,
        "meta_eccentricity": 0.07567645,
        "meta_inclination": 39.7061,
        "meta_ra_of_asc_node": 245.8118,
        "meta_arg_of_pericenter": 269.528,
        "meta_mean_anomaly": 282.4506,
        "meta_ephemeris_type": 0,
        "meta_classification_type": "U",
        "meta_norad_cat_id": 42738,
        "meta_element_set_no": 999,
        "meta_rev_at_epoch": 580,
        "meta_bstar": 0,
        "meta_mean_motion_dot": -1.35e-06,
        "meta_mean_motion_ddot": 0,
        "tle_line1": "1 42738U 17028A   25351.58155575 -.00000135  00000+0  00000+0 0  9997",
        "tle_line2": "2 42738  39.7061 245.8118 0756764 269.5280 282.4506  1.00281777  5801"
      },
      "geometry": {
        "type": "Point",
        "coordinates": [
          -153.14212115782902,
          -27.603574598630473
        ]
      }
    }
  ]
}